[
  {
    "COMMENT": "GENERATED VIA SPACETRACK.ORG API",
    "ORIGINATOR": "18 SPCS",
    "NORAD_CAT_ID": "41335",
    "OBJECT_NAME": "SENTINEL 3A",
    "OBJECT_TYPE": "PAYLOAD",
    "CLASSIFICATION_TYPE": "U",
    "INTLDES": "16011A",
    "EPOCH": "2023-05-05 19:09:29",
    "EPOCH_MICROSECONDS": "318400",
    "MEAN_MOTION": "14.267374",
    "ECCENTRICITY": "0.000125",
    "INCLINATION": "98.6234",
    "RA_OF_ASC_NODE": "193.4689",
    "ARG_OF_PERICENTER": "104.9051",
    "MEAN_ANOMALY": "255.2268",
    "EPHEMERIS_TYPE": "0",
    "ELEMENT_SET_NO": "999",
    "REV_AT_EPOCH": "37573",
    "BSTAR": "0.00009637",
    "MEAN_MOTION_DOT": "0.0000019",
    "MEAN_MOTION_DDOT": "0",
    "FILE": "3901765",
    "TLE_LINE0": "0 SENTINEL 3A",
    "TLE_LINE1": "1 41335U 16011A   23125.79825600  .00000190  00000-0  96370-4 0  9994",
    "TLE_LINE2": "2 41335  98.6234 193.4689 0001250 104.9051 255.2268 14.26737400375737",
    "OBJECT_ID": "2016-011A",
    "OBJECT_NUMBER": "41335",
    "SEMIMAJOR_AXIS": "7180.794",
    "PERIOD": "100.930",
    "APOGEE": "803.557",
    "PERIGEE": "801.762",
    "DECAYED": "0"
  },
  {
    "COMMENT": "GENERATED VIA SPACETRACK.ORG API",
    "ORIGINATOR": "18 SPCS",
    "NORAD_CAT_ID": "41335",
    "OBJECT_NAME": "SENTINEL 3A",
    "OBJECT_TYPE": "PAYLOAD",
    "CLASSIFICATION_TYPE": "U",
    "INTLDES": "16011A",
    "EPOCH": "2023-05-05 20:50:28",
    "EPOCH_MICROSECONDS": "537440",
    "MEAN_MOTION": "14.26737421",
    "ECCENTRICITY": "0.0001248",
    "INCLINATION": "98.6234",
    "RA_OF_ASC_NODE": "193.538",
    "ARG_OF_PERICENTER": "104.9268",
    "MEAN_ANOMALY": "255.2051",
    "EPHEMERIS_TYPE": "0",
    "ELEMENT_SET_NO": "999",
    "REV_AT_EPOCH": "37574",
    "BSTAR": "0.00009558",
    "MEAN_MOTION_DOT": "0.00000188",
    "MEAN_MOTION_DDOT": "0",
    "FILE": "3901993",
    "TLE_LINE0": "0 SENTINEL 3A",
    "TLE_LINE1": "1 41335U 16011A   23125.86838585  .00000188  00000-0  95580-4 0  9997",
    "TLE_LINE2": "2 41335  98.6234 193.5380 0001248 104.9268 255.2051 14.26737421375747",
    "OBJECT_ID": "2016-011A",
    "OBJECT_NUMBER": "41335",
    "SEMIMAJOR_AXIS": "7180.794",
    "PERIOD": "100.930",
    "APOGEE": "803.555",
    "PERIGEE": "801.763",
    "DECAYED": "0"
  },
  {
    "COMMENT": "GENERATED VIA SPACETRACK.ORG API",
    "ORIGINATOR": "18 SPCS",
    "NORAD_CAT_ID": "41335",
    "OBJECT_NAME": "SENTINEL 3A",
    "OBJECT_TYPE": "PAYLOAD",
    "CLASSIFICATION_TYPE": "U",
    "INTLDES": "16011A",
    "EPOCH": "2023-05-06 03:34:25",
    "EPOCH_MICROSECONDS": "412736",
    "MEAN_MOTION": "14.26737807",
    "ECCENTRICITY": "0.0001244",
    "INCLINATION": "98.6233",
    "RA_OF_ASC_NODE": "193.8145",
    "ARG_OF_PERICENTER": "105.0532",
    "MEAN_ANOMALY": "255.0786",
    "EPHEMERIS_TYPE": "0",
    "ELEMENT_SET_NO": "999",
    "REV_AT_EPOCH": "37578",
    "BSTAR": "0.00011687",
    "MEAN_MOTION_DOT": "0.00000239",
    "MEAN_MOTION_DDOT": "0",
    "FILE": "3902037",
    "TLE_LINE0": "0 SENTINEL 3A",
    "TLE_LINE1": "1 41335U 16011A   23126.14890524  .00000239  00000-0  11687-3 0  9992",
    "TLE_LINE2": "2 41335  98.6233 193.8145 0001244 105.0532 255.0786 14.26737807375785",
    "OBJECT_ID": "2016-011A",
    "OBJECT_NUMBER": "41335",
    "SEMIMAJOR_AXIS": "7180.793",
    "PERIOD": "100.930",
    "APOGEE": "803.551",
    "PERIGEE": "801.764",
    "DECAYED": "0"
  },
  {
    "COMMENT": "GENERATED VIA SPACETRACK.ORG API",
    "ORIGINATOR": "18 SPCS",
    "NORAD_CAT_ID": "41335",
    "OBJECT_NAME": "SENTINEL 3A",
    "OBJECT_TYPE": "PAYLOAD",
    "CLASSIFICATION_TYPE": "U",
    "INTLDES": "16011A",
    "EPOCH": "2023-05-06 15:21:19",
    "EPOCH_MICROSECONDS": "925280",
    "MEAN_MOTION": "14.26738304",
    "ECCENTRICITY": "0.0001252",
    "INCLINATION": "98.6233",
    "RA_OF_ASC_NODE": "194.2983",
    "ARG_OF_PERICENTER": "104.5808",
    "MEAN_ANOMALY": "255.5512",
    "EPHEMERIS_TYPE": "0",
    "ELEMENT_SET_NO": "999",
    "REV_AT_EPOCH": "37585",
    "BSTAR": "0.00013458",
    "MEAN_MOTION_DOT": "0.00000282",
    "MEAN_MOTION_DDOT": "0",
    "FILE": "3902298",
    "TLE_LINE0": "0 SENTINEL 3A",
    "TLE_LINE1": "1 41335U 16011A   23126.63981395  .00000282  00000-0  13458-3 0  9999",
    "TLE_LINE2": "2 41335  98.6233 194.2983 0001252 104.5808 255.5512 14.26738304375852",
    "OBJECT_ID": "2016-011A",
    "OBJECT_NUMBER": "41335",
    "SEMIMAJOR_AXIS": "7180.791",
    "PERIOD": "100.930",
    "APOGEE": "803.555",
    "PERIGEE": "801.757",
    "DECAYED": "0"
  },
  {
    "COMMENT": "GENERATED VIA SPACETRACK.ORG API",
    "ORIGINATOR": "18 SPCS",
    "NORAD_CAT_ID": "41335",
    "OBJECT_NAME": "SENTINEL 3A",
    "OBJECT_TYPE": "PAYLOAD",
    "CLASSIFICATION_TYPE": "U",
    "INTLDES": "16011A",
    "EPOCH": "2023-05-06 23:46:16",
    "EPOCH_MICROSECONDS": "10976",
    "MEAN_MOTION": "14.26738313",
    "ECCENTRICITY": "0.0001255",
    "INCLINATION": "98.6233",
    "RA_OF_ASC_NODE": "194.6438",
    "ARG_OF_PERICENTER": "104.7042",
    "MEAN_ANOMALY": "255.4277",
    "EPHEMERIS_TYPE": "0",
    "ELEMENT_SET_NO": "999",
    "REV_AT_EPOCH": "37590",
    "BSTAR": "0.00012275",
    "MEAN_MOTION_DOT": "0.00000253",
    "MEAN_MOTION_DDOT": "0",
    "FILE": "3902370",
    "TLE_LINE0": "0 SENTINEL 3A",
    "TLE_LINE1": "1 41335U 16011A   23126.99046309  .00000253  00000-0  12275-3 0  9999",
    "TLE_LINE2": "2 41335  98.6233 194.6438 0001255 104.7042 255.4277 14.26738313375909",
    "OBJECT_ID": "2016-011A",
    "OBJECT_NUMBER": "41335",
    "SEMIMAJOR_AXIS": "7180.791",
    "PERIOD": "100.930",
    "APOGEE": "803.557",
    "PERIGEE": "801.755",
    "DECAYED": "0"
  },
  {
    "COMMENT": "GENERATED VIA SPACETRACK.ORG API",
    "ORIGINATOR": "18 SPCS",
    "NORAD_CAT_ID": "41335",
    "OBJECT_NAME": "SENTINEL 3A",
    "OBJECT_TYPE": "PAYLOAD",
    "CLASSIFICATION_TYPE": "U",
    "INTLDES": "16011A",
    "EPOCH": "2023-05-07 03:08:14",
    "EPOCH_MICROSECONDS": "449920",
    "MEAN_MOTION": "14.26738374",
    "ECCENTRICITY": "0.0001253",
    "INCLINATION": "98.6233",
    "RA_OF_ASC_NODE": "194.782",
    "ARG_OF_PERICENTER": "104.7106",
    "MEAN_ANOMALY": "255.4214",
    "EPHEMERIS_TYPE": "0",
    "ELEMENT_SET_NO": "999",
    "REV_AT_EPOCH": "37592",
    "BSTAR": "0.0001244",
    "MEAN_MOTION_DOT": "0.00000257",
    "MEAN_MOTION_DDOT": "0",
    "FILE": "3902872",
    "TLE_LINE0": "0 SENTINEL 3A",
    "TLE_LINE1": "1 41335U 16011A   23127.13072280  .00000257  00000-0  12440-3 0  9991",
    "TLE_LINE2": "2 41335  98.6233 194.7820 0001253 104.7106 255.4214 14.26738374375924",
    "OBJECT_ID": "2016-011A",
    "OBJECT_NUMBER": "41335",
    "SEMIMAJOR_AXIS": "7180.791",
    "PERIOD": "100.930",
    "APOGEE": "803.556",
    "PERIGEE": "801.756",
    "DECAYED": "0"
  },
  {
    "COMMENT": "GENERATED VIA SPACETRACK.ORG API",
    "ORIGINATOR": "18 SPCS",
    "NORAD_CAT_ID": "41335",
    "OBJECT_NAME": "SENTINEL 3A",
    "OBJECT_TYPE": "PAYLOAD",
    "CLASSIFICATION_TYPE": "U",
    "INTLDES": "16011A",
    "EPOCH": "2023-05-07 09:52:11",
    "EPOCH_MICROSECONDS": "314848",
    "MEAN_MOTION": "14.2673849",
    "ECCENTRICITY": "0.0001263",
    "INCLINATION": "98.6233",
    "RA_OF_ASC_NODE": "195.0585",
    "ARG_OF_PERICENTER": "104.3035",
    "MEAN_ANOMALY": "255.8286",
    "EPHEMERIS_TYPE": "0",
    "ELEMENT_SET_NO": "999",
    "REV_AT_EPOCH": "37596",
    "BSTAR": "0.00012269",
    "MEAN_MOTION_DOT": "0.00000253",
    "MEAN_MOTION_DDOT": "0",
    "FILE": "3903046",
    "TLE_LINE0": "0 SENTINEL 3A",
    "TLE_LINE1": "1 41335U 16011A   23127.41124207  .00000253  00000-0  12269-3 0  9994",
    "TLE_LINE2": "2 41335  98.6233 195.0585 0001263 104.3035 255.8286 14.26738490375960",
    "OBJECT_ID": "2016-011A",
    "OBJECT_NUMBER": "41335",
    "SEMIMAJOR_AXIS": "7180.790",
    "PERIOD": "100.929",
    "APOGEE": "803.562",
    "PERIGEE": "801.749",
    "DECAYED": "0"
  },
  {
    "COMMENT": "GENERATED VIA SPACETRACK.ORG API",
    "ORIGINATOR": "18 SPCS",
    "NORAD_CAT_ID": "41335",
    "OBJECT_NAME": "SENTINEL 3A",
    "OBJECT_TYPE": "PAYLOAD",
    "CLASSIFICATION_TYPE": "U",
    "INTLDES": "16011A",
    "EPOCH": "2023-05-07 13:14:09",
    "EPOCH_MICROSECONDS": "742560",
    "MEAN_MOTION": "14.26738561",
    "ECCENTRICITY": "0.0001263",
    "INCLINATION": "98.6233",
    "RA_OF_ASC_NODE": "195.1967",
    "ARG_OF_PERICENTER": "104.3127",
    "MEAN_ANOMALY": "255.8194",
    "EPHEMERIS_TYPE": "0",
    "ELEMENT_SET_NO": "999",
    "REV_AT_EPOCH": "37598",
    "BSTAR": "0.00012189",
    "MEAN_MOTION_DOT": "0.00000251",
    "MEAN_MOTION_DDOT": "0",
    "FILE": "3903215",
    "TLE_LINE0": "0 SENTINEL 3A",
    "TLE_LINE1": "1 41335U 16011A   23127.55150165  .00000251  00000-0  12189-3 0  9990",
    "TLE_LINE2": "2 41335  98.6233 195.1967 0001263 104.3127 255.8194 14.26738561375986",
    "OBJECT_ID": "2016-011A",
    "OBJECT_NUMBER": "41335",
    "SEMIMAJOR_AXIS": "7180.790",
    "PERIOD": "100.929",
    "APOGEE": "803.562",
    "PERIGEE": "801.748",
    "DECAYED": "0"
  }
]